     2.10           N: GPS NAV DATA                         RINEX VERSION / TYPE
teqc  2013Mar15     gpsops              20140513 00:23:23UTCPGM / RUN BY / DATE
Linux 2.4.21-27.ELsmp|Opteron|gcc -static|Linux x86_64|=+   COMMENT
GLPS                                    MARKER NAME         COMMENT
42005M002                               MARKER NUMBER       COMMENT
-33801.4662 -6377516.5323 -82154.3508                       COMMENT
                                                            COMMENT
This data is provided as a public service by NASA/JPL.      COMMENT
No warranty is expressed or implied regarding suitability   COMMENT
for use.  For further information, contact:                 COMMENT
Dave Stowers, NASA/JPL m/s 238-600                          COMMENT
4800 Oak Grove Drive, Pasadena CA 91109 USA                 COMMENT
                                                            END OF HEADER
17 14  5 12 22  0  0.0-9.263027459383D-05-3.069544618484D-12 0.000000000000D+00
    3.700000000000D+01 3.618750000000D+01 4.613406452611D-09 1.640432173876D+00
    1.749023795128D-06 9.293885319494D-03 7.415190339088D-06 5.153585536957D+03
    1.656000000000D+05-2.793967723846D-07-2.453942483526D+00-9.685754776001D-08
    9.685241448839D-01 2.441562500000D+02-2.100241718378D+00-8.092122783681D-09
    4.335894893140D-10 0.000000000000D+00 1.792000000000D+03 0.000000000000D+00
    2.000000000000D+00 0.000000000000D+00-1.024454832077D-08 3.700000000000D+01
    1.595400000000D+05 4.000000000000D+00
10 14  5 12 22  0  0.0-1.252931542695D-04-1.591615728103D-12 0.000000000000D+00
    8.300000000000D+01 2.756250000000D+01 4.445542317539D-09 2.718144518727D+00
    1.393258571625D-06 1.354521990288D-02 1.227483153343D-05 5.153737323761D+03
    1.656000000000D+05 7.078051567078D-08-3.884356410236D-01-1.583248376846D-07
    9.424515580560D-01 1.312500000000D+02 8.630461860464D-01-7.751037147523D-09
   -2.053656971627D-10 0.000000000000D+00 1.792000000000D+03 0.000000000000D+00
    2.800000000000D+00 0.000000000000D+00-2.793967723846D-09 8.300000000000D+01
    1.638000000000D+05 4.000000000000D+00
 8 14  5 12 22  0  0.0 1.354562118649D-05 2.273736754432D-13 0.000000000000D+00
    5.400000000000D+01-9.178125000000D+01 3.945878647398D-09-1.633324482521D+00
   -5.017966032028D-06 1.368570781779D-02 3.714114427567D-06 5.153474706650D+03
    1.656000000000D+05 1.136213541031D-07 1.815444928728D+00-1.732259988785D-07
    9.965133562783D-01 3.223750000000D+02-2.778740104079D+00-7.921758544469D-09
   -4.750197864808D-11 0.000000000000D+00 1.792000000000D+03 0.000000000000D+00
    2.800000000000D+00 0.000000000000D+00-4.190951585770D-09 5.400000000000D+01
    1.638300000000D+05 4.000000000000D+00
 1 14  5 13  0  0  0.0 1.200614497066D-05 1.250555214938D-12 0.000000000000D+00
    3.100000000000D+01-3.687500000000D+01 5.019851954126D-09 5.721620084785D-01
   -1.851469278336D-06 3.016305039637D-03 5.336478352547D-06 5.153671819687D+03
    1.728000000000D+05 4.284083843231D-08-1.444317211941D+00 2.421438694000D-08
    9.604054820462D-01 2.710000000000D+02 3.072116321633D-01-8.344633301757D-09
   -5.639520622956D-10 0.000000000000D+00 1.792000000000D+03 0.000000000000D+00
    2.000000000000D+00 0.000000000000D+00 5.587935447693D-09 3.100000000000D+01
    1.656000000000D+05 4.000000000000D+00
 7 14  5 13  0  0  0.0 3.456170670688D-04 4.206412995700D-12 0.000000000000D+00
    3.700000000000D+01-7.706250000000D+01 4.560904265684D-09-6.285598250111D-02
   -3.917142748833D-06 7.291728630662D-03 2.553686499596D-06 5.153630662918D+03
    1.728000000000D+05 9.872019290924D-08 1.716234226513D+00 9.685754776001D-08
    9.732505055044D-01 3.368750000000D+02-2.841632282099D+00-8.481424713954D-09
   -1.882221259213D-10 0.000000000000D+00 1.792000000000D+03 0.000000000000D+00
    2.000000000000D+00 0.000000000000D+00-1.071020960808D-08 3.700000000000D+01
    1.656000000000D+05 4.000000000000D+00
 8 14  5 13  0  0  0.0 1.354748383164D-05 2.273736754432D-13 0.000000000000D+00
    5.500000000000D+01-8.750000000000D+01 4.007666935414D-09-5.830718180702D-01
   -4.412606358528D-06 1.368564320728D-02 3.561377525330D-06 5.153473552704D+03
    1.728000000000D+05 2.868473529816D-07 1.815388329891D+00 1.303851604462D-07
    9.965114793544D-01 3.255000000000D+02-2.778694225505D+00-8.179626428559D-09
   -2.282237921513D-10 0.000000000000D+00 1.792000000000D+03 0.000000000000D+00
    2.800000000000D+00 0.000000000000D+00-4.190951585770D-09 5.500000000000D+01
    1.656000000000D+05 4.000000000000D+00
10 14  5 13  0  0  0.0-1.253043301404D-04-1.591615728103D-12 0.000000000000D+00
    8.700000000000D+01 3.015625000000D+01 4.410540859587D-09-2.514867997867D+00
    1.557171344757D-06 1.354460977018D-02 1.261569559574D-05 5.153738519669D+03
    1.728000000000D+05 4.656612873077D-08-3.884910431942D-01-9.685754776001D-08
    9.424500790458D-01 1.244375000000D+02 8.630147040493D-01-7.711749796762D-09
   -2.292952653539D-10 0.000000000000D+00 1.792000000000D+03 0.000000000000D+00
    2.800000000000D+00 0.000000000000D+00-2.793967723846D-09 8.700000000000D+01
    1.656000000000D+05 4.000000000000D+00
11 14  5 12 23 59 44.0-4.884265363216D-04-3.183231456205D-12 0.000000000000D+00
    7.000000000000D+00-7.218750000000D+00 6.938146144493D-09 1.059187243514D-01
   -1.545995473862D-07 1.492121070623D-02 3.749504685402D-06 5.153690113068D+03
    1.727840000000D+05-1.844018697739D-07-1.767372262995D+00 1.136213541031D-07
    8.900499114542D-01 2.684687500000D+02 1.282927164872D+00-9.582542008481D-09
   -1.942938074027D-10 0.000000000000D+00 1.792000000000D+03 0.000000000000D+00
    2.000000000000D+00 0.000000000000D+00-1.210719347000D-08 7.000000000000D+00
    1.656000000000D+05 4.000000000000D+00
17 14  5 13  0  0  0.0-9.265262633562D-05-3.069544618484D-12 0.000000000000D+00
    3.800000000000D+01 3.628125000000D+01 4.610549190737D-09 2.690777667793D+00
    1.795589923859D-06 9.294474031776D-03 7.472932338715D-06 5.153583345413D+03
    1.728000000000D+05-2.048909664154D-08-2.453999791879D+00-1.750886440277D-07
    9.685284034384D-01 2.356250000000D+02-2.100351014450D+00-7.861756045124D-09
    4.518045337580D-10 0.000000000000D+00 1.792000000000D+03 0.000000000000D+00
    2.000000000000D+00 0.000000000000D+00-1.024454832077D-08 3.800000000000D+01
    1.656000000000D+05 4.000000000000D+00
19 14  5 13  0  0  0.0-4.565147683024D-04-2.160049916711D-12 0.000000000000D+00
    1.300000000000D+01 3.959375000000D+01 4.883774857397D-09 1.915508547294D+00
    2.155080437660D-06 1.029358536471D-02 7.307156920433D-06 5.153605882645D+03
    1.728000000000D+05-2.179294824600D-07-2.403148399565D+00 1.695007085800D-07
    9.656085550036D-01 2.441562500000D+02 4.255439917639D-01-8.192126949256D-09
    4.835915721015D-10 0.000000000000D+00 1.792000000000D+03 0.000000000000D+00
    2.000000000000D+00 0.000000000000D+00-1.490116119385D-08 1.300000000000D+01
    1.656000000000D+05 4.000000000000D+00
20 14  5 13  0  0  0.0 1.888554543257D-04 3.865352482535D-12 0.000000000000D+00
    2.700000000000D+01 2.537500000000D+01 4.966278293997D-09-1.464416980742D+00
    1.216307282448D-06 5.775548168458D-03 1.283362507820D-05 5.153804872513D+03
    1.728000000000D+05 8.754432201385D-08-4.638584774989D-01 1.415610313416D-07
    9.271462106754D-01 1.130312500000D+02 1.331286269965D+00-8.173554747077D-09
   -4.957349350642D-10 0.000000000000D+00 1.792000000000D+03 0.000000000000D+00
    2.000000000000D+00 0.000000000000D+00-8.381903171539D-09 2.700000000000D+01
    1.656000000000D+05 4.000000000000D+00
23 14  5 13  0  0  0.0-2.001039683819D-05-3.069544618484D-12 0.000000000000D+00
    8.200000000000D+01 1.220625000000D+02 4.749126391605D-09 1.600495604575D+00
    6.396323442459D-06 9.299105848186D-03 5.196779966354D-06 5.153792478561D+03
    1.728000000000D+05-8.754432201385D-08 6.544408295503D-01 5.774199962616D-08
    9.521783394441D-01 2.752187500000D+02-2.792802589906D+00-8.442494520927D-09
    2.950122884460D-10 0.000000000000D+00 1.792000000000D+03 0.000000000000D+00
    2.800000000000D+00 0.000000000000D+00-2.002343535423D-08 8.200000000000D+01
    1.656000000000D+05 4.000000000000D+00
28 14  5 13  0  0  0.0 3.543044440448D-04 2.842170943040D-12 0.000000000000D+00
    9.800000000000D+01-7.837500000000D+01 3.613364796862D-09-2.747254062045D+00
   -4.043802618980D-06 1.912333047949D-02 1.242570579052D-05 5.153678434372D+03
    1.728000000000D+05 3.334134817123D-07 2.803442254120D+00 8.381903171539D-08
    9.868758904278D-01 1.460312500000D+02-1.716047862453D+00-7.242801691762D-09
    2.271523189487D-10 0.000000000000D+00 1.792000000000D+03 0.000000000000D+00
    2.000000000000D+00 0.000000000000D+00-1.071020960808D-08 9.800000000000D+01
    1.656000000000D+05 4.000000000000D+00
 9 14  5 13  0  0  0.0 3.271140158176D-04 2.842170943040D-12 0.000000000000D+00
    6.100000000000D+01-7.365625000000D+01 4.373039297497D-09 9.938699232888D-01
   -4.174187779427D-06 1.718243665528D-02 2.784654498100D-06 5.153678323746D+03
    1.728000000000D+05-7.078051567078D-08 1.695717789384D+00-2.998858690262D-07
    9.817841543137D-01 3.385625000000D+02 1.802291737188D+00-8.465709773650D-09
   -1.864363372504D-10 0.000000000000D+00 1.792000000000D+03 0.000000000000D+00
    2.800000000000D+00 0.000000000000D+00-6.053596735001D-09 6.100000000000D+01
    1.657200000000D+05 4.000000000000D+00
 4 14  5 13  0  0  0.0 6.870366632938D-06 0.000000000000D+00 0.000000000000D+00
    4.400000000000D+01-3.781250000000D+01 5.396296205969D-09-1.735342150023D+00
   -1.883134245872D-06 1.056762540247D-02 4.824250936508D-06 5.153723007202D+03
    1.728000000000D+05 2.421438694000D-07-1.457567353988D+00-1.862645149231D-09
    9.379638417989D-01 2.728125000000D+02 1.094857433138D+00-8.410707482584D-09
   -4.389468553270D-10 0.000000000000D+00 1.792000000000D+03 0.000000000000D+00
    2.000000000000D+00 0.000000000000D+00-6.519258022308D-09 4.400000000000D+01
    1.662000000000D+05 4.000000000000D+00
